{
  "links" : {
    "next" : "https://api.nasa.gov/neo/rest/v1/feed?start_date=2015-02-09&end_date=2015-02-09&detailed=true&api_key=t0TVs3DtDT2H8Oy2Zy8m2eVrNsAVKAexjcZXUckd",
    "prev" : "https://api.nasa.gov/neo/rest/v1/feed?start_date=2015-02-07&end_date=2015-02-07&detailed=true&api_key=t0TVs3DtDT2H8Oy2Zy8m2eVrNsAVKAexjcZXUckd",
    "self" : "https://api.nasa.gov/neo/rest/v1/feed?start_date=2015-02-08&end_date=2015-02-08&detailed=true&api_key=t0TVs3DtDT2H8Oy2Zy8m2eVrNsAVKAexjcZXUckd"
  },
  "element_count" : 9,
  "near_earth_objects" : {
    "2015-02-08" : [ {
      "links" : {
        "self" : "https://api.nasa.gov/neo/rest/v1/neo/2311554?api_key=t0TVs3DtDT2H8Oy2Zy8m2eVrNsAVKAexjcZXUckd"
      },
      "neo_reference_id" : "2311554",
      "name" : "311554 (2006 BQ147)",
      "nasa_jpl_url" : "http://ssd.jpl.nasa.gov/sbdb.cgi?sstr=2311554",
      "absolute_magnitude_h" : 18.7,
      "estimated_diameter" : {
        "kilometers" : {
          "estimated_diameter_min" : 0.4836764882,
          "estimated_diameter_max" : 1.0815335068
        },
        "meters" : {
          "estimated_diameter_min" : 483.6764882185,
          "estimated_diameter_max" : 1081.533506775
        },
        "miles" : {
          "estimated_diameter_min" : 0.3005425432,
          "estimated_diameter_max" : 0.6720335566
        },
        "feet" : {
          "estimated_diameter_min" : 1586.8651696069,
          "estimated_diameter_max" : 3548.3383903678
        }
      },
      "is_potentially_hazardous_asteroid" : false,
      "close_approach_data" : [ {
        "close_approach_date" : "2015-02-08",
        "epoch_date_close_approach" : 1423382400000,
        "relative_velocity" : {
          "kilometers_per_second" : "13.7811341264",
          "kilometers_per_hour" : "49612.0828548712",
          "miles_per_hour" : "30827.0189272393"
        },
        "miss_distance" : {
          "astronomical" : "0.2183508834",
          "lunar" : "84.9384918213",
          "kilometers" : "32664828",
          "miles" : "20296984"
        },
        "orbiting_body" : "Earth"
      } ],
      "orbital_data" : {
        "orbit_id" : "47",
        "orbit_determination_date" : "2017-04-06 09:23:53",
        "orbit_uncertainty" : "0",
        "minimum_orbit_intersection" : ".0716163",
        "jupiter_tisserand_invariant" : "7.001",
        "epoch_osculation" : "2458000.5",
        "eccentricity" : ".4221275646928601",
        "semi_major_axis" : ".819993750765831",
        "inclination" : "24.38369960352589",
        "ascending_node_longitude" : "146.797854771499",
        "orbital_period" : "271.2153344392641",
        "perihelion_distance" : ".4738517856916866",
        "perihelion_argument" : "153.2000157917001",
        "aphelion_distance" : "1.166135715839975",
        "perihelion_time" : "2457990.508510796144",
        "mean_anomaly" : "13.26228887767301",
        "mean_motion" : "1.327358575591965",
        "equinox" : "J2000"
      }
    }, {
      "links" : {
        "self" : "https://api.nasa.gov/neo/rest/v1/neo/3562830?api_key=t0TVs3DtDT2H8Oy2Zy8m2eVrNsAVKAexjcZXUckd"
      },
      "neo_reference_id" : "3562830",
      "name" : "(2011 GP59)",
      "nasa_jpl_url" : "http://ssd.jpl.nasa.gov/sbdb.cgi?sstr=3562830",
      "absolute_magnitude_h" : 24.3,
      "estimated_diameter" : {
        "kilometers" : {
          "estimated_diameter_min" : 0.0366906138,
          "estimated_diameter_max" : 0.0820427065
        },
        "meters" : {
          "estimated_diameter_min" : 36.6906137531,
          "estimated_diameter_max" : 82.0427064882
        },
        "miles" : {
          "estimated_diameter_min" : 0.0227984834,
          "estimated_diameter_max" : 0.0509789586
        },
        "feet" : {
          "estimated_diameter_min" : 120.3760332259,
          "estimated_diameter_max" : 269.1689931548
        }
      },
      "is_potentially_hazardous_asteroid" : false,
      "close_approach_data" : [ {
        "close_approach_date" : "2015-02-08",
        "epoch_date_close_approach" : 1423382400000,
        "relative_velocity" : {
          "kilometers_per_second" : "5.9400554326",
          "kilometers_per_hour" : "21384.1995572084",
          "miles_per_hour" : "13287.3099970887"
        },
        "miss_distance" : {
          "astronomical" : "0.1563928082",
          "lunar" : "60.8368034363",
          "kilometers" : "23396032",
          "miles" : "14537620"
        },
        "orbiting_body" : "Earth"
      } ],
      "orbital_data" : {
        "orbit_id" : "18",
        "orbit_determination_date" : "2017-04-06 08:53:46",
        "orbit_uncertainty" : "1",
        "minimum_orbit_intersection" : ".00347209",
        "jupiter_tisserand_invariant" : "6.769",
        "epoch_osculation" : "2458000.5",
        "eccentricity" : ".2576795112710575",
        "semi_major_axis" : ".8689334157518706",
        "inclination" : "8.513761555893636",
        "ascending_node_longitude" : "24.36394732138642",
        "orbital_period" : "295.8544970740713",
        "perihelion_distance" : ".6450270778538379",
        "perihelion_argument" : "319.2955599321823",
        "aphelion_distance" : "1.092839753649903",
        "perihelion_time" : "2458129.448434056194",
        "mean_anomaly" : "203.0936939633281",
        "mean_motion" : "1.216814358275139",
        "equinox" : "J2000"
      }
    }, {
      "links" : {
        "self" : "https://api.nasa.gov/neo/rest/v1/neo/3672899?api_key=t0TVs3DtDT2H8Oy2Zy8m2eVrNsAVKAexjcZXUckd"
      },
      "neo_reference_id" : "3672899",
      "name" : "(2014 KQ76)",
      "nasa_jpl_url" : "http://ssd.jpl.nasa.gov/sbdb.cgi?sstr=3672899",
      "absolute_magnitude_h" : 21.6,
      "estimated_diameter" : {
        "kilometers" : {
          "estimated_diameter_min" : 0.1272198785,
          "estimated_diameter_max" : 0.2844722965
        },
        "meters" : {
          "estimated_diameter_min" : 127.2198785394,
          "estimated_diameter_max" : 284.4722965033
        },
        "miles" : {
          "estimated_diameter_min" : 0.0790507431,
          "estimated_diameter_max" : 0.1767628354
        },
        "feet" : {
          "estimated_diameter_min" : 417.3880663071,
          "estimated_diameter_max" : 933.3080892598
        }
      },
      "is_potentially_hazardous_asteroid" : true,
      "close_approach_data" : [ {
        "close_approach_date" : "2015-02-08",
        "epoch_date_close_approach" : 1423382400000,
        "relative_velocity" : {
          "kilometers_per_second" : "12.7473167015",
          "kilometers_per_hour" : "45890.3401253852",
          "miles_per_hour" : "28514.4727295762"
        },
        "miss_distance" : {
          "astronomical" : "0.3465862887",
          "lunar" : "134.8220672607",
          "kilometers" : "51848572",
          "miles" : "32217208"
        },
        "orbiting_body" : "Earth"
      } ],
      "orbital_data" : {
        "orbit_id" : "24",
        "orbit_determination_date" : "2016-06-08 06:17:52",
        "orbit_uncertainty" : "2",
        "minimum_orbit_intersection" : ".0409175",
        "jupiter_tisserand_invariant" : "5.959",
        "epoch_osculation" : "2457600.5",
        "eccentricity" : ".4233135009763423",
        "semi_major_axis" : "1.00746639767388",
        "inclination" : "4.773717282978413",
        "ascending_node_longitude" : "128.0520480970782",
        "orbital_period" : "369.3552544889754",
        "perihelion_distance" : ".5809922697585259",
        "perihelion_argument" : "324.7548504927909",
        "aphelion_distance" : "1.433940525589234",
        "perihelion_time" : "2457777.420801445288",
        "mean_anomaly" : "187.5603561984664",
        "mean_motion" : ".9746713919044717",
        "equinox" : "J2000"
      }
    } ]
  }
}